{"type": "FeatureCollection", "features": [ {"type": "Feature", "properties": {"norad_id": 66323, "name": "STARLINK-35309", "group": "last-30-days", "lat": 7.450149193601921, "lon": -144.4119946741797, "alt_km": 413.38505710192385, "timestamp": "2025-12-02T15:49:05.947068+00:00", "meta": {"OBJECT_NAME": "STARLINK-35309", "OBJECT_ID": "2025-253E", "EPOCH": "2025-12-02T05:49:04.463328", "MEAN_MOTION": 15.50637239, "ECCENTRICITY": 0.0001247, "INCLINATION": 42.9998, "RA_OF_ASC_NODE": 46.0933, "ARG_OF_PERICENTER": 255.0071, "MEAN_ANOMALY": 105.0651, "EPHEMERIS_TYPE": 0, "CLASSIFICATION_TYPE": "U", "NORAD_CAT_ID": 66323, "ELEMENT_SET_NO": 999, "REV_AT_EPOCH": 530, "BSTAR": 0.0014893415, "MEAN_MOTION_DOT": 0.00088204, "MEAN_MOTION_DDOT": 0}, "tle": {"line1": "1 66323U 25253E   25336.24241277  .00088204  00000+0  14893-2 0  9993", "line2": "2 66323  42.9998  46.0933 0001247 255.0071 105.0651 15.50637239  5309"}}, "geometry": {"type": "Point", "coordinates": [-144.4119946741797, 7.450149193601921]}}, {"type": "Feature", "properties": {"norad_id": 66324, "name": "STARLINK-35506", "group": "last-30-days", "lat": 11.886758858651893, "lon": -149.38461211770786, "alt_km": 412.49186106410343, "timestamp": "2025-12-02T15:49:05.947082+00:00", "meta": {"OBJECT_NAME": "STARLINK-35506", "OBJECT_ID": "2025-253F", "EPOCH": "2025-12-02T05:50:53.634048", "MEAN_MOTION": 15.50908788, "ECCENTRICITY": 0.00016094, "INCLINATION": 43.0002, "RA_OF_ASC_NODE": 46.1022, "ARG_OF_PERICENTER": 289.6052, "MEAN_ANOMALY": 70.4635, "EPHEMERIS_TYPE": 0, "CLASSIFICATION_TYPE": "U", "NORAD_CAT_ID": 66324, "ELEMENT_SET_NO": 999, "REV_AT_EPOCH": 530, "BSTAR": 0.002552848, "MEAN_MOTION_DOT": 0.00154211, "MEAN_MOTION_DDOT": 0}, "tle": {"line1": "1 66324U 25253F   25336.24367632  .00154211  00000+0  25528-2 0  9997", "line2": "2 66324  43.0002  46.1022 0001609 289.6052  70.4635 15.50908788  5309"}}, "geometry": {"type": "Point", "coordinates": [-149.38461211770786, 11.886758858651893]}}, {"type": "Feature", "properties": {"norad_id": 66325, "name": "STARLINK-35504", "group": "last-30-days", "lat": 9.134053724373528, "lon": -146.27839844737514, "alt_km": 412.25841438320185, "timestamp": "2025-12-02T15:49:05.947093+00:00", "meta": {"OBJECT_NAME": "STARLINK-35504", "OBJECT_ID": "2025-253G", "EPOCH": "2025-12-01T06:38:41.956800", "MEAN_MOTION": 15.50659884, "ECCENTRICITY": 0.0001584, "INCLINATION": 42.9997, "RA_OF_ASC_NODE": 51.7479, "ARG_OF_PERICENTER": 258.798, "MEAN_ANOMALY": 101.2703, "EPHEMERIS_TYPE": 0, "CLASSIFICATION_TYPE": "U", "NORAD_CAT_ID": 66325, "ELEMENT_SET_NO": 999, "REV_AT_EPOCH": 515, "BSTAR": 0.0026242, "MEAN_MOTION_DOT": 0.00157191, "MEAN_MOTION_DDOT": 0}, "tle": {"line1": "1 66325U 25253G   25335.27687450  .00157191  00000+0  26242-2 0  9997", "line2": "2 66325  42.9997  51.7479 0001584 258.7980 101.2703 15.50659884  5150"}}, "geometry": {"type": "Point", "coordinates": [-146.27839844737514, 9.134053724373528]}}, {"type": "Feature", "properties": {"norad_id": 66326, "name": "STARLINK-35479", "group": "last-30-days", "lat": 6.020842653680159, "lon": -142.85190026718286, "alt_km": 412.672962910151, "timestamp": "2025-12-02T15:49:05.947104+00:00", "meta": {"OBJECT_NAME": "STARLINK-35479", "OBJECT_ID": "2025-253H", "EPOCH": "2025-12-02T05:48:34.408224", "MEAN_MOTION": 15.50760727, "ECCENTRICITY": 0.00029807, "INCLINATION": 42.9998, "RA_OF_ASC_NODE": 46.0879, "ARG_OF_PERICENTER": 243.8104, "MEAN_ANOMALY": 116.245, "EPHEMERIS_TYPE": 0, "CLASSIFICATION_TYPE": "U", "NORAD_CAT_ID": 66326, "ELEMENT_SET_NO": 999, "REV_AT_EPOCH": 530, "BSTAR": 0.0019751996, "MEAN_MOTION_DOT": 0.0011807, "MEAN_MOTION_DDOT": 0}, "tle": {"line1": "1 66326U 25253H   25336.24206491  .00118070  00000+0  19752-2 0  9999", "line2": "2 66326  42.9998  46.0879 0002980 243.8104 116.2450 15.50760727  5308"}}, "geometry": {"type": "Point", "coordinates": [-142.85190026718286, 6.020842653680159]}}, {"type": "Feature", "properties": {"norad_id": 66327, "name": "STARLINK-35507", "group": "last-30-days", "lat": 13.701753777891975, "lon": -151.4900623851331, "alt_km": 412.18105126538194, "timestamp": "2025-12-02T15:49:05.947117+00:00", "meta": {"OBJECT_NAME": "STARLINK-35507", "OBJECT_ID": "2025-253J", "EPOCH": "2025-12-02T05:51:32.368032", "MEAN_MOTION": 15.50777938, "ECCENTRICITY": 0.00025961, "INCLINATION": 42.9999, "RA_OF_ASC_NODE": 46.106, "ARG_OF_PERICENTER": 253.7936, "MEAN_ANOMALY": 106.2639, "EPHEMERIS_TYPE": 0, "CLASSIFICATION_TYPE": "U", "NORAD_CAT_ID": 66327, "ELEMENT_SET_NO": 999, "REV_AT_EPOCH": 530, "BSTAR": 0.0021550364, "MEAN_MOTION_DOT": 0.00129109, "MEAN_MOTION_DDOT": 0}, "tle": {"line1": "1 66327U 25253J   25336.24412463  .00129109  00000+0  21550-2 0  9992", "line2": "2 66327  42.9999  46.1060 0002596 253.7936 106.2639 15.50777938  5309"}}, "geometry": {"type": "Point", "coordinates": [-151.4900623851331, 13.701753777891975]}}, {"type": "Feature", "properties": {"norad_id": 66328, "name": "STARLINK-35460", "group": "last-30-days", "lat": 2.006941078858754, "lon": -138.52514635282589, "alt_km": 414.48424314848216, "timestamp": "2025-12-02T15:49:05.947127+00:00", "meta": {"OBJECT_NAME": "STARLINK-35460", "OBJECT_ID": "2025-253K", "EPOCH": "2025-12-01T14:19:31.564704", "MEAN_MOTION": 15.50606087, "ECCENTRICITY": 0.00018266, "INCLINATION": 43.0003, "RA_OF_ASC_NODE": 49.8457, "ARG_OF_PERICENTER": 291.64, "MEAN_ANOMALY": 68.4265, "EPHEMERIS_TYPE": 0, "CLASSIFICATION_TYPE": "U", "NORAD_CAT_ID": 66328, "ELEMENT_SET_NO": 999, "REV_AT_EPOCH": 520, "BSTAR": 0.0016742687, "MEAN_MOTION_DOT": 0.0009923, "MEAN_MOTION_DDOT": 0}, "tle": {"line1": "1 66328U 25253K   25335.59689311  .00099230  00000+0  16743-2 0  9997", "line2": "2 66328  43.0003  49.8457 0001826 291.6400  68.4265 15.50606087  5209"}}, "geometry": {"type": "Point", "coordinates": [-138.52514635282589, 2.006941078858754]}}, {"type": "Feature", "properties": {"norad_id": 66329, "name": "STARLINK-35505", "group": "last-30-days", "lat": 15.528395754150054, "lon": -153.66299908708862, "alt_km": 414.851403994272, "timestamp": "2025-12-02T15:49:05.947138+00:00", "meta": {"OBJECT_NAME": "STARLINK-35505", "OBJECT_ID": "2025-253L", "EPOCH": "2025-12-02T05:52:02.295264", "MEAN_MOTION": 15.50171072, "ECCENTRICITY": 0.00021498, "INCLINATION": 43.0001, "RA_OF_ASC_NODE": 46.1098, "ARG_OF_PERICENTER": 329.5243, "MEAN_ANOMALY": 30.5492, "EPHEMERIS_TYPE": 0, "CLASSIFICATION_TYPE": "U", "NORAD_CAT_ID": 66329, "ELEMENT_SET_NO": 999, "REV_AT_EPOCH": 530, "BSTAR": 0.002540188, "MEAN_MOTION_DOT": 0.00149376, "MEAN_MOTION_DDOT": 0}, "tle": {"line1": "1 66329U 25253L   25336.24447101  .00149376  00000+0  25402-2 0  9999", "line2": "2 66329  43.0001  46.1098 0002149 329.5243  30.5492 15.50171072  5308"}}, "geometry": {"type": "Point", "coordinates": [-153.66299908708862, 15.528395754150054]}}, {"type": "Feature", "properties": {"norad_id": 66330, "name": "STARLINK-35512", "group": "last-30-days", "lat": 41.46800670607082, "lon": 152.31133473588088, "alt_km": 438.729418620509, "timestamp": "2025-12-02T15:49:05.947148+00:00", "meta": {"OBJECT_NAME": "STARLINK-35512", "OBJECT_ID": "2025-253M", "EPOCH": "2025-12-02T06:00:02.999808", "MEAN_MOTION": 15.40646388, "ECCENTRICITY": 0.00019144, "INCLINATION": 43.0006, "RA_OF_ASC_NODE": 46.1715, "ARG_OF_PERICENTER": 287.614, "MEAN_ANOMALY": 64.587, "EPHEMERIS_TYPE": 0, "CLASSIFICATION_TYPE": "U", "NORAD_CAT_ID": 66330, "ELEMENT_SET_NO": 999, "REV_AT_EPOCH": 524, "BSTAR": 0.0017320996, "MEAN_MOTION_DOT": 0.00072614, "MEAN_MOTION_DDOT": 0}, "tle": {"line1": "1 66330U 25253M   25336.25003472  .00072614  00000+0  17321-2 0  9992", "line2": "2 66330  43.0006  46.1715 0001914 287.6140  64.5870 15.40646388  5246"}}, "geometry": {"type": "Point", "coordinates": [152.31133473588088, 41.46800670607082]}}, {"type": "Feature", "properties": {"norad_id": 66331, "name": "STARLINK-35257", "group": "last-30-days", "lat": -1.676536466092134, "lon": -134.5796924251474, "alt_km": 414.6415612237206, "timestamp": "2025-12-02T15:49:05.947160+00:00", "meta": {"OBJECT_NAME": "STARLINK-35257", "OBJECT_ID": "2025-253N", "EPOCH": "2025-12-02T05:45:36.980640", "MEAN_MOTION": 15.5063759, "ECCENTRICITY": 0.00012288, "INCLINATION": 42.9998, "RA_OF_ASC_NODE": 46.0726, "ARG_OF_PERICENTER": 269.4284, "MEAN_ANOMALY": 90.6435, "EPHEMERIS_TYPE": 0, "CLASSIFICATION_TYPE": "U", "NORAD_CAT_ID": 66331, "ELEMENT_SET_NO": 999, "REV_AT_EPOCH": 530, "BSTAR": 0.0014445212, "MEAN_MOTION_DOT": 0.00085511, "MEAN_MOTION_DDOT": 0}, "tle": {"line1": "1 66331U 25253N   25336.24001135  .00085511  00000+0  14445-2 0  9990", "line2": "2 66331  42.9998  46.0726 0001228 269.4284  90.6435 15.50637590  5301"}}, "geometry": {"type": "Point", "coordinates": [-134.5796924251474, -1.676536466092134]}}, {"type": "Feature", "properties": {"norad_id": 66332, "name": "STARLINK-35322", "group": "last-30-days", "lat": 4.771148781698905, "lon": -141.4956218957749, "alt_km": 413.9335037443134, "timestamp": "2025-12-02T15:49:05.947170+00:00", "meta": {"OBJECT_NAME": "STARLINK-35322", "OBJECT_ID": "2025-253P", "EPOCH": "2025-12-02T05:48:04.240800", "MEAN_MOTION": 15.50671276, "ECCENTRICITY": 9.862e-05, "INCLINATION": 43.0002, "RA_OF_ASC_NODE": 46.0856, "ARG_OF_PERICENTER": 282.8379, "MEAN_ANOMALY": 77.2371, "EPHEMERIS_TYPE": 0, "CLASSIFICATION_TYPE": "U", "NORAD_CAT_ID": 66332, "ELEMENT_SET_NO": 999, "REV_AT_EPOCH": 530, "BSTAR": 0.0015229972, "MEAN_MOTION_DOT": 0.00090339, "MEAN_MOTION_DDOT": 0}, "tle": {"line1": "1 66332U 25253P   25336.24171575  .00090339  00000+0  15230-2 0  9994", "line2": "2 66332  43.0002  46.0856 0000986 282.8379  77.2371 15.50671276  5307"}}, "geometry": {"type": "Point", "coordinates": [-141.4956218957749, 4.771148781698905]}}]}